NORAD_CAT_ID,OBJECT_NAME,OBJECT_TYPE,EPOCH,MEAN_MOTION,ECCENTRICITY,INCLINATION,RA_OF_ASC_NODE,ARG_OF_PERICENTER,MEAN_ANOMALY,BSTAR,MEAN_MOTION_DOT,MEAN_MOTION_DDOT,TLE_LINE0,TLE_LINE1,TLE_LINE2,SEMIMAJOR_AXIS,PERIOD,APOGEE,PERIGEE,DECAYED
51799.0,STARLINK-3637,PAYLOAD,2022-10-15 00:28:21,15.088467800000002,0.0001747,53.217,163.2054,47.4582,312.6558,-5.7442e-05,-1.202e-05,0.0,0 STARLINK-3637,1 51799U 22017AH  22288.01969272 -.00001202  00000-0 -57442-4 0  9994,2 51799  53.2170 163.2054 0001747  47.4582 312.6558 15.08846780 36478,6917.86,95.437,540.933,538.516,0.0
51799.0,STARLINK-3637,PAYLOAD,2022-10-15 17:57:35,15.08844938,0.0001558,53.2166,159.9359,49.757,310.3558,0.00012961,1.776e-05,0.0,0 STARLINK-3637,1 51799U 22017AH  22288.74832230  .00001776  00000-0  12961-3 0  9997,2 51799  53.2166 159.9359 0001558  49.7570 310.3558 15.08844938 36585,6917.865,95.437,540.808,538.6519999999998,0.0
51799.0,STARLINK-3637,PAYLOAD,2022-10-16 01:54:31,15.08836824,0.0001904,53.2167,158.4508,40.238,319.8753,5.446e-05,5.79e-06,0.0,0 STARLINK-3637,1 51799U 22017AH  22289.07953040  .00000579  00000-0  54460-4 0  9998,2 51799  53.2167 158.4508 0001904  40.2380 319.8753 15.08836824 36638,6917.89,95.438,541.072,538.438,0.0
51799.0,STARLINK-3637,PAYLOAD,2022-10-16 19:23:46,15.08832847,0.0001598,53.2165,155.1779,52.1198,307.9938,1.6375e-05,-2.7e-07,0.0,0 STARLINK-3637,1 51799U 22017AH  22289.80817630 -.00000027  00000-0  16375-4 0  9995,2 51799  53.2165 155.1779 0001598  52.1198 307.9938 15.08832847 36744,6917.901999999999,95.438,540.873,538.6619999999998,0.0
51799.0,STARLINK-3637,PAYLOAD,2022-10-17 08:06:50,15.08842809,0.000154,53.2161,152.7992,53.2666,306.8468,4.7479e-05,4.68e-06,0.0,0 STARLINK-3637,1 51799U 22017AH  22290.33808979  .00000468  00000-0  47479-4 0  9998,2 51799  53.2161 152.7992 0001540  53.2666 306.8468 15.08842809 36823,6917.871999999999,95.437,540.802,538.6709999999998,0.0
51799.0,STARLINK-3637,PAYLOAD,2022-10-17 19:14:33,15.08874757,0.0001837,53.2154,150.718,65.3959,294.7225,-0.00057608,-9.454e-05,0.0,0 STARLINK-3637,1 51799U 22017AH  22290.80177392 -.00009454  00000-0 -57608-3 0  9998,2 51799  53.2154 150.7180 0001837  65.3959 294.7225 15.08874757 36890,6917.774,95.435,540.91,538.368,0.0
51799.0,STARLINK-3637,PAYLOAD,2022-10-18 07:57:38,15.08836934,0.0001808,53.2165,148.3389,51.2552,308.8601,8.6874e-05,1.095e-05,0.0,0 STARLINK-3637,1 51799U 22017AH  22291.33169487  .00001095  00000-0  86874-4 0  9992,2 51799  53.2165 148.3389 0001808  51.2552 308.8601 15.08836934 36976,6917.89,95.438,541.006,538.504,0.0
51799.0,STARLINK-3637,PAYLOAD,2022-10-18 20:40:44,15.08828099,0.0001811999999999,53.2174,145.9602,54.1982,305.9179,-1.7711e-05,-5.700000000000001e-06,0.0,0 STARLINK-3637,1 51799U 22017AH  22291.86162708 -.00000570  00000-0 -17711-4 0  9992,2 51799  53.2174 145.9602 0001812  54.1982 305.9179 15.08828099 37052,6917.917,95.438,541.035,538.528,0.0
51799.0,STARLINK-3637,PAYLOAD,2022-10-18 23:51:31,15.08826076,0.0001844999999999,53.2173,145.366,54.5798,305.5366,-3.7127e-06,-3.47e-06,0.0,0 STARLINK-3637,1 51799U 22017AH  22291.99410903 -.00000347  00000-0 -37127-5 0  9995,2 51799  53.2173 145.3660 0001845  54.5798 305.5366 15.08826076 37073,6917.9230000000025,95.438,541.064,538.512,0.0
51799.0,STARLINK-3637,PAYLOAD,2022-10-19 07:48:26,15.08834134,0.0001924,53.2176,143.8784,53.5922,306.5248,2.1737e-05,5.8e-07,0.0,0 STARLINK-3637,1 51799U 22017AH  22292.32530513  .00000058  00000-0  21737-4 0  9999,2 51799  53.2176 143.8784 0001924  53.5922 306.5248 15.08834134 37122,6917.898,95.438,541.094,538.432,0.0
51799.0,STARLINK-3637,PAYLOAD,2022-10-19 17:20:44,15.08836554,0.0001899,53.2167,142.0943,54.5777,305.5392,0.00012641,1.724e-05,0.0,0 STARLINK-3637,1 51799U 22017AH  22292.72274107  .00001724  00000-0  12641-3 0  9991,2 51799  53.2167 142.0943 0001899  54.5777 305.5392 15.08836554 37183,6917.891,95.438,541.07,538.442,0.0
51799.0,STARLINK-3637,PAYLOAD,2022-10-20 01:17:40,15.08840909,0.000185,53.2166,140.6069,55.7394,304.3773,8.854799999999999e-05,1.121e-05,0.0,0 STARLINK-3637,1 51799U 22017AH  22293.05393977  .00001121  00000-0  88548-4 0  9996,2 51799  53.2166 140.6069 0001850  55.7394 304.3773 15.08840909 37235,6917.878000000002,95.437,541.0219999999998,538.4630000000002,0.0
51799.0,STARLINK-3637,PAYLOAD,2022-10-20 20:22:18,15.08833482,0.0001876999999999,53.2164,137.0386,53.717,306.3996,9.2276e-05,1.181e-05,0.0,0 STARLINK-3637,1 51799U 22017AH  22293.84882508  .00001181  00000-0  92276-4 0  9995,2 51799  53.2164 137.0386 0001877  53.7170 306.3996 15.08833482 37354,6917.9,95.438,541.064,538.467,0.0
51799.0,STARLINK-3637,PAYLOAD,2022-10-20 23:33:04,15.08835356,0.0001826,53.2167,136.4437,52.8908,307.2251,5.21e-05,5.41e-06,0.0,0 STARLINK-3637,1 51799U 22017AH  22293.98130560  .00000541  00000-0  52100-4 0  9995,2 51799  53.2167 136.4437 0001826  52.8908 307.2251 15.08835356 37378,6917.895,95.438,541.023,538.496,0.0
51799.0,STARLINK-3637,PAYLOAD,2022-10-21 15:26:55,15.08844038,0.000184,53.2165,133.47,54.0646,306.0516,6.3585e-05,7.24e-06,0.0,0 STARLINK-3637,1 51799U 22017AH  22294.64369956  .00000724  00000-0  63585-4 0  9994,2 51799  53.2165 133.4700 0001840  54.0646 306.0516 15.08844038 37474,6917.868,95.437,541.006,538.46,0.0
51799.0,STARLINK-3637,PAYLOAD,2022-10-22 00:59:14,15.08839519,0.0001811999999999,53.2166,131.6857,52.1775,307.9381,-3.1764e-05,-7.94e-06,0.0,0 STARLINK-3637,1 51799U 22017AH  22295.04114489 -.00000794  00000-0 -31764-4 0  9991,2 51799  53.2166 131.6857 0001812  52.1775 307.9381 15.08839519 37534,6917.882,95.438,541.0,538.493,0.0
51799.0,STARLINK-3637,PAYLOAD,2022-10-22 13:42:20,15.08835447,0.0001844,53.2165,129.30700000000002,52.5277,307.5883,-2.3151e-05,-6.57e-06,0.0,0 STARLINK-3637,1 51799U 22017AH  22295.57106814 -.00000657  00000-0 -23151-4 0  9991,2 51799  53.2165 129.3070 0001844  52.5277 307.5883 15.08835447 37618,6917.894,95.438,541.035,538.484,0.0
51799.0,STARLINK-3637,PAYLOAD,2022-10-22 20:03:52,15.08838446,0.0001906999999999,53.2164,128.1174,54.8326,305.2845,5.325e-05,5.59e-06,0.0,0 STARLINK-3637,1 51799U 22017AH  22295.83602440  .00000559  00000-0  53250-4 0  9998,2 51799  53.2164 128.1174 0001907  54.8326 305.2845 15.08838446 37658,6917.885,95.438,541.069,538.431,0.0
51799.0,STARLINK-3637,PAYLOAD,2022-10-23 00:50:01,15.08840622,0.0001923,53.2164,127.2252,55.4853,304.6321,6.9226e-05,8.14e-06,0.0,0 STARLINK-3637,1 51799U 22017AH  22296.03474269  .00000814  00000-0  69226-4 0  9991,2 51799  53.2164 127.2252 0001923  55.4853 304.6321 15.08840622 37689,6917.878000000002,95.438,541.0740000000002,538.413,0.0
51799.0,STARLINK-3637,PAYLOAD,2022-10-23 16:43:52,15.08846038,0.0001989,53.2164,124.2516,57.304,302.8144,0.00012581,1.715e-05,0.0,0 STARLINK-3637,1 51799U 22017AH  22296.69713543  .00001715  00000-0  12581-3 0  9996,2 51799  53.2164 124.2516 0001989  57.3040 302.8144 15.08846038 37781,6917.861999999999,95.437,541.1030000000002,538.351,0.0
51799.0,STARLINK-3637,PAYLOAD,2022-10-23 19:54:38,15.08847159,0.0001989,53.2165,123.6568,57.3999,302.7185,0.00013149,1.806e-05,0.0,0 STARLINK-3637,1 51799U 22017AH  22296.82961429  .00001806  00000-0  13149-3 0  9991,2 51799  53.2165 123.6568 0001989  57.3999 302.7185 15.08847159 37807,6917.859,95.437,541.099,538.3480000000002,0.0
51799.0,STARLINK-3637,PAYLOAD,2022-10-23 23:05:25,15.08837006,0.0002154999999999,53.2165,123.0622,53.9297,306.1895,4.6582e-05,4.53e-06,0.0,0 STARLINK-3637,1 51799U 22017AH  22296.96210368  .00000453  00000-0  46582-4 0  9990,2 51799  53.2165 123.0622 0002155  53.9297 306.1895 15.08837006 37829,6917.89,95.438,541.245,538.264,0.0
51799.0,STARLINK-3637,PAYLOAD,2022-10-24 16:34:40,15.08833769,0.0002331,53.2167,119.7911,53.5124,306.6083,-7.8225e-06,-4.13e-06,0.0,0 STARLINK-3637,1 51799U 22017AH  22297.69074999 -.00000413  00000-0 -78225-5 0  9997,2 51799  53.2167 119.7911 0002331  53.5124 306.6083 15.08833769 37933,6917.899,95.438,541.377,538.1519999999998,0.0
51799.0,STARLINK-3637,PAYLOAD,2022-10-24 22:56:13,15.08828089,0.0001995,53.2166,118.6015,55.7247,304.3934,-5.7065e-05,-1.196e-05,0.0,0 STARLINK-3637,1 51799U 22017AH  22297.95571554 -.00001196  00000-0 -57065-4 0  9992,2 51799  53.2166 118.6015 0001995  55.7247 304.3934 15.08828089 37973,6917.917,95.438,541.1619999999998,538.4019999999998,0.0
51799.0,STARLINK-3637,PAYLOAD,2022-10-25 05:17:46,15.0882943,0.0001894,53.2166,117.4121,56.1075,304.0097,-6.2295e-05,-1.279e-05,0.0,0 STARLINK-3637,1 51799U 22017AH  22298.22067561 -.00001279  00000-0 -62295-4 0  9994,2 51799  53.2166 117.4121 0001894  56.1075 304.0097 15.08829430 38014,6917.913000000001,95.438,541.0880000000002,538.467,0.0
51799.0,STARLINK-3637,PAYLOAD,2022-10-25 18:00:51,15.08835726,0.0001903,53.2167,115.0328,54.8849,305.2321,-9.1055e-05,-1.737e-05,0.0,0 STARLINK-3637,1 51799U 22017AH  22298.75059513 -.00001737  00000-0 -91055-4 0  9995,2 51799  53.2167 115.0328 0001903  54.8849 305.2321 15.08835726 38099,6917.893,95.438,541.075,538.442,0.0
51799.0,STARLINK-3637,PAYLOAD,2022-10-25 19:36:14,15.08835943,0.0001916,53.2168,114.7356,55.0081,305.1091,-8.7175e-05,-1.675e-05,0.0,0 STARLINK-3637,1 51799U 22017AH  22298.81683506 -.00001675  00000-0 -87175-4 0  9996,2 51799  53.2168 114.7356 0001916  55.0081 305.1091 15.08835943 38108,6917.893,95.438,541.0830000000002,538.432,0.0
51799.0,STARLINK-3637,PAYLOAD,2022-10-26 11:30:06,15.08831387,0.0001872,53.2171,111.7622,55.4753,304.6416,4.0156e-05,3.51e-06,0.0,0 STARLINK-3637,1 51799U 22017AH  22299.47923722  .00000351  00000-0  40156-4 0  9992,2 51799  53.2171 111.7622 0001872  55.4753 304.6416 15.08831387 38200,6917.906999999997,95.438,541.067,538.477,0.0
51799.0,STARLINK-3637,PAYLOAD,2022-10-26 21:02:24,15.08831427,0.0001911999999999,53.2169,109.9781,55.9159,304.2015,0.00013387,1.843e-05,0.0,0 STARLINK-3637,1 51799U 22017AH  22299.87667677  .00001843  00000-0  13387-3 0  9992,2 51799  53.2169 109.9781 0001912  55.9159 304.2015 15.08831427 38264,6917.906999999997,95.438,541.094,538.4490000000002,0.0
